satname,norad_id,inclination_deg,eccentricity,mean_motion_rev_per_day,perigee_km,apogee_km,l1,l2
STARLINK-1008,44714,53.0557,0.0001614,15.064252,546.0165858526161,548.2520634362118,1 44714U 19074B   25334.11823662  .00008008  00000+0  55550-3 0  9995,2 44714  53.0557 273.6108 0001614  94.7148 265.4026 15.06425200333749
STARLINK-1011,44717,53.0409,0.0002777,16.13343265,235.85046323672123,239.5248922627443,1 44717U 19074E   25334.79385345  .00983959  61451-3  81881-3 0  9997,2 44717  53.0409 233.3142 0002777 189.7516 170.3466 16.13343265334364
STARLINK-1012,44718,53.053,0.0002107,15.06404499,545.7386011497028,548.6569372214371,1 44718U 19074F   25334.82594485  .00003577  00000+0  25888-3 0  9992,2 44718  53.0530 270.4336 0002107  87.4753 272.6477 15.06404499333849
STARLINK-1017,44723,53.0495,0.000589,15.1723589,510.139340777042,518.2585124986208,1 44723U 19074L   25334.54039998  .00037270  00000+0  18563-2 0  9998,2 44723  53.0495 266.2673 0005890  57.7507 302.4057 15.17235890333880
STARLINK-1019,44724,53.0545,0.0004058,15.54596567,400.57369538725834,406.0775304439012,1 44724U 19074M   25334.91670139  .00071272  00000+0  10571-2 0  9999,2 44724  53.0545 262.6229 0004058 103.4075 228.8429 15.54596567  5880
STARLINK-1020,44725,53.0546,0.0001601,15.06412332,546.0650201391927,548.2825046453108,1 44725U 19074N   25334.29701465  .00004846  00000+0  34391-3 0  9998,2 44725  53.0546 292.8083 0001601  91.4189 268.6984 15.06412332333480
STARLINK-1031,44736,53.0497,0.0007609,15.56002855,394.0821140632688,404.3959248897081,1 44736U 19074Z   25334.91670139  .00060737  00000+0  85698-3 0  9999,2 44736  53.0497 249.6561 0007609  50.9284 149.8271 15.56002855  5977
STARLINK-1036,44741,53.0539,0.0001341,15.06430623,546.1890277878556,548.046381099587,1 44741U 19074AE  25334.12745308  .00008913  00000+0  61602-3 0  9996,2 44741  53.0539 293.5683 0001341  90.0843 270.0300 15.06430623333467
STARLINK-1039,44744,53.0515,0.0001817,15.14784674,520.3786606943204,522.8860368756677,1 44744U 19074AH  25334.30975321  .00005048  00000+0  28488-3 0  9990,2 44744  53.0515 309.1333 0001817 355.0857   5.0117 15.14784674333264
STARLINK-1042,44747,53.0457,0.0003166,15.4465865,430.2250361832439,434.537456336775,1 44747U 19074AL  25334.04515701  .00021805  00000+0  46811-3 0  9995,2 44747  53.0457 210.9664 0003166 153.3475 206.7693 15.44658650334641
STARLINK-1043,44748,53.0562,0.0001648,15.42790043,436.7560639938456,439.0026229806599,1 44748U 19074AM  25334.91670139  .00089902  00000+0  20083-2 0  9993,2 44748  53.0562 307.5314 0001648  94.4273 218.4818 15.42790043  5799
STARLINK-1046,44751,53.0539,0.0001196,15.06405694,546.3658371029715,548.0223763036956,1 44751U 19074AQ  25334.64532411  .00001941  00000+0  14911-3 0  9998,2 44751  53.0539 311.2450 0001196  87.7050 272.4076 15.06405694333263
STARLINK-1047,44752,53.0713,7.77e-05,15.30065272,475.08483574549155,476.149909174972,1 44752U 19074AR  25334.48767344  .00010888  00000+0  38074-3 0  9992,2 44752  53.0713 248.5454 0000777 276.0545  84.0366 15.30065272334148
STARLINK-1048,44753,53.0531,0.0001426,15.06399631,546.2251340047296,548.2002437359952,1 44753U 19074AS  25334.53844031  .00001052  00000+0  89483-4 0  9992,2 44753  53.0531 271.7238 0001426  77.2232 282.8916 15.06399631333804
STARLINK-1053,44758,53.0388,0.0004943,15.65142804,369.4910863946325,376.1650904810622,1 44758U 19074AX  25334.85480369  .00062331  00000+0  61993-3 0  9994,2 44758  53.0388 216.3799 0004943 131.7856 228.3581 15.65142804334628
STARLINK-1060,44765,53.051,0.0009226,15.71976011,347.0397073231916,359.46046277252117,1 44765U 19074BE  25334.91670139  .00136100  00000+0  10074-2 0  9994,2 44765  53.0510 261.3501 0009226  93.3125 208.3694 15.71976011  6020
STARLINK-1063,44768,53.0542,0.0001572,15.06392227,546.1467126278803,548.3240497045199,1 44768U 19074BH  25334.83331146 -.00003320  00000+0 -20410-3 0  9995,2 44768  53.0542 310.4033 0001572  94.1011 266.0158 15.06392227333302
STARLINK-1067,44771,53.0549,0.0001395,15.06437255,546.1313088862407,548.0634492780046,1 44771U 19074BL  25334.35780707  .00012781  00000+0  87452-3 0  9995,2 44771  53.0549 312.5376 0001395  86.4632 273.6517 15.06437255333227
STARLINK-1068,44772,53.0542,0.0002049,15.06407623,545.7691955073324,548.6071937720944,1 44772U 19074BM  25334.61401073  .00006358  00000+0  44527-3 0  9990,2 44772  53.0542 291.3858 0002049  85.0452 275.0771 15.06407623333530
STARLINK-1112,44925,53.0479,0.0005007,15.6059416,382.5529192153981,389.3264656151823,1 44925U 20001M   25334.91670139  .00159243  00000+0  18593-2 0  9991,2 44925  53.0479  16.8169 0005007 339.0490 202.6757 15.60594160  5938
STARLINK-1114,44927,53.0548,0.0001246,15.06408553,546.3224491850588,548.0482395132703,1 44927U 20001P   25334.65268962  .00003513  00000+0  25456-3 0  9996,2 44927  53.0548  71.2137 0001246  85.6664 274.4468 15.06408553324924
STARLINK-1123,44930,53.0562,0.0001403,15.06405061,546.2244225191635,548.1676709720805,1 44930U 20001S   25334.53474333  .00000922  00000+0  80758-4 0  9996,2 44930  53.0562  71.7437 0001403  85.0155 275.0994 15.06405061324906
STARLINK-1144,44933,53.0449,0.0001565,15.69394033,359.57646151898916,361.68569592762924,1 44933U 20001V   25334.91670139  .00220772  00000+0  18022-2 0  9993,2 44933  53.0449 352.1151 0001565 162.1344 146.1603 15.69394033  5959
STARLINK-1094,44941,53.0549,0.000138,15.06408719,546.2291411746228,548.1405300012448,1 44941U 20001AD  25334.48130294  .00012657  00000+0  86687-3 0  9991,2 44941  53.0549  51.9841 0001380  83.5634 276.5512 15.06408719325176
STARLINK-1122,44949,53.0559,0.0001367,15.06419652,546.204641129023,548.0980149579109,1 44949U 20001AM  25334.63610313  .00006630  00000+0  46330-3 0  9996,2 44949  53.0559  51.2849 0001367  93.3109 266.8037 15.06419652325191
STARLINK-1080,44961,53.0548,0.0001611,15.06418201,546.0401103903014,548.2714397224245,1 44961U 20001AZ  25334.56791961  .00005786  00000+0  40684-3 0  9998,2 44961  53.0548  31.5925 0001611  88.3213 271.7960 15.06418201325471
STARLINK-1090,44968,53.0549,0.0001392,15.06408881,546.2203343556994,548.1483438165014,1 44968U 20001BG  25334.43891817  .00006010  00000+0  42194-3 0  9991,2 44968  53.0549  32.1731 0001392  79.9752 280.1394 15.06408881325457
STARLINK-1107,44972,53.0011,0.0007636,15.88828975,300.46125757346636,310.66860716457995,1 44972U 20001BL  25334.91670139  .00614086  00000+0  19803-2 0  9999,2 44972  53.0011 288.9470 0007636  98.0259 314.0459 15.88828975  6037
STARLINK-1132,45044,53.0551,0.0001512,15.06411216,546.1300752225343,548.224290231391,1 45044U 20006A   25334.33202276  .00005469  00000+0  38566-3 0  9991,2 45044  53.0551 352.6553 0001512  90.1949 269.9213 15.06411216321766
STARLINK-1131,45047,53.0558,0.000136,15.06401666,546.2646051834736,548.1482986023875,1 45047U 20006D   25334.10909650  .00003063  00000+0  22441-3 0  9992,2 45047  53.0558  14.1943 0001360  89.2591 270.8554 15.06401666321444
STARLINK-1134,45048,53.0382,0.0004116,15.31177884,469.4771995323399,475.11647666786394,1 45048U 20006E   25334.73992975  .00070372  00000+0  22946-2 0  9990,2 45048  53.0382 344.2306 0004116 292.7312  67.3252 15.31177884321921
STARLINK-1156,45054,53.0552,0.0001327,15.06391834,546.3175885904002,548.1555827400352,1 45054U 20006L   25334.80935789  .00000528  00000+0  54371-4 0  9990,2 45054  53.0552  10.5107 0001327  89.4246 270.6895 15.06391834321553
STARLINK-1159,45057,53.0548,0.0005335,15.54721579,399.3443692710025,406.5798019953727,1 45057U 20006P   25334.80832780  .00115710  00000+0  16942-2 0  9990,2 45057  53.0548   1.1710 0005335  26.3719 333.7562 15.54721579321698
STARLINK-1166,45060,53.056,0.000149,15.0640426,546.1666266928478,548.2303766723489,1 45060U 20006S   25334.83515899  .00003705  00000+0  26745-3 0  9999,2 45060  53.0560  10.3954 0001490  86.7121 273.4038 15.06404260321569
STARLINK-1169,45061,53.056,0.0001502,15.06404637,546.1571610187784,548.2375314563888,1 45061U 20006T   25334.11271392  .00002206  00000+0  16691-3 0  9992,2 45061  53.0560  13.6384 0001502  86.7670 273.3491 15.06404637321454
STARLINK-1171,45062,53.0543,0.0009094,15.37568137,447.09053009920353,459.51555324699893,1 45062U 20006U   25334.23865736  .00090936  00000+0  24095-2 0  9990,2 45062  53.0543   4.7334 0009094  14.3913 345.7347 15.37568137321592
STARLINK-1133,45064,53.0567,0.0001335,15.06405382,546.2705311021355,548.1195947629394,1 45064U 20006W   25334.24356293  .00002706  00000+0  20044-3 0  9995,2 45064  53.0567 353.0499 0001335  88.3746 271.7396 15.06405382321755
STARLINK-1167,45071,53.0554,0.0001464,15.06407905,546.1734628757895,548.2011978397186,1 45071U 20006AD  25334.26935750  .00001629  00000+0  12818-3 0  9999,2 45071  53.0554 352.9340 0001464  90.1338 269.9819 15.06407905321755
STARLINK-1168,45072,53.0543,0.0001405,15.06411042,546.2047092877365,548.1507227229349,1 45072U 20006AE  25334.33939324  .00005105  00000+0  36123-3 0  9997,2 45072  53.0543 352.6186 0001405  83.8407 276.2742 15.06411042321764
STARLINK-1172,45074,53.054,0.0001288,15.06398751,546.3234005587228,548.1073713333426,1 45074U 20006AG  25334.74853273  .00000056  00000+0  22659-4 0  9992,2 45074  53.0540 350.7841 0001288  84.1291 275.9845 15.06398751321822
STARLINK-1153,45080,53.0547,0.0001457,15.06412696,546.1636291845862,548.1816644156643,1 45080U 20006AN  25334.46103447  .00010749  00000+0  73919-3 0  9993,2 45080  53.0547 352.0728 0001457  89.3981 270.7175 15.06412696321785
STARLINK-1151,45081,53.054,0.0002159,15.10022137,534.6396357839694,537.6252173223556,1 45081U 20006AP  25334.91670139  .00046352  00000+0  28183-2 0  9992,2 45081  53.0540 350.0032 0002159  95.5701 349.5398 15.10022137  5798
STARLINK-1185,45087,53.0553,0.0001859,15.0639512,545.9390893984637,548.513939553146,1 45087U 20006AV  25334.68771758 -.00000134  00000+0  99456-5 0  9994,2 45087  53.0553 331.0545 0001859  94.6158 265.5043 15.06395120322109
